[{"OBJECT_NAME":"ONEWEB-0050","OBJECT_ID":"2020-020AF","EPOCH":"2026-03-09T21:25:12.459648","MEAN_MOTION":14.90004194,"ECCENTRICITY":0.00029804,"INCLINATION":88.9205,"RA_OF_ASC_NODE":246.7269,"ARG_OF_PERICENTER":19.3816,"MEAN_ANOMALY":340.7526,"EPHEMERIS_TYPE":0,"CLASSIFICATION_TYPE":"U","NORAD_CAT_ID":45453,"ELEMENT_SET_NO":999,"REV_AT_EPOCH":32559,"BSTAR":0.00024442233,"MEAN_MOTION_DOT":2.377e-5,"MEAN_MOTION_DDOT":0},{"OBJECT_NAME":"AETHER-6","OBJECT_ID":"2026-004Q","EPOCH":"2026-03-09T23:24:31.786560","MEAN_MOTION":14.88053153,"ECCENTRICITY":0.00065468,"INCLINATION":97.8038,"RA_OF_ASC_NODE":69.2098,"ARG_OF_PERICENTER":92.1481,"MEAN_ANOMALY":268.0486,"EPHEMERIS_TYPE":0,"CLASSIFICATION_TYPE":"U","NORAD_CAT_ID":67377,"ELEMENT_SET_NO":999,"REV_AT_EPOCH":853,"BSTAR":0.00028428707,"MEAN_MOTION_DOT":2.559e-5,"MEAN_MOTION_DDOT":0}]
